[{"OBJECT_NAME":"STARLINK-37128","OBJECT_ID":"2026-063F","EPOCH":"2026-04-02T18:00:02.000160","MEAN_MOTION":15.98657525,"ECCENTRICITY":0.0001616,"INCLINATION":97.2831,"RA_OF_ASC_NODE":233.544,"ARG_OF_PERICENTER":74.3986,"MEAN_ANOMALY":79.758,"EPHEMERIS_TYPE":0,"CLASSIFICATION_TYPE":"U","NORAD_CAT_ID":68385,"ELEMENT_SET_NO":999,"REV_AT_EPOCH":227,"BSTAR":-0.0037772821,"MEAN_MOTION_DOT":-0.01759455,"MEAN_MOTION_DDOT":0.00092081284},{"OBJECT_NAME":"STARLINK-37198","OBJECT_ID":"2026-063G","EPOCH":"2026-04-02T18:00:02.000160","MEAN_MOTION":15.98780711,"ECCENTRICITY":0.0001542,"INCLINATION":97.2825,"RA_OF_ASC_NODE":233.5446,"ARG_OF_PERICENTER":70.5188,"MEAN_ANOMALY":85.6578,"EPHEMERIS_TYPE":0,"CLASSIFICATION_TYPE":"U","NORAD_CAT_ID":68386,"ELEMENT_SET_NO":999,"REV_AT_EPOCH":232,"BSTAR":-0.0037378471,"MEAN_MOTION_DOT":-0.01753101,"MEAN_MOTION_DDOT":0.00091586127},{"OBJECT_NAME":"STARLINK-37223","OBJECT_ID":"2026-063H","EPOCH":"2026-04-02T18:00:02.000160","MEAN_MOTION":15.98921873,"ECCENTRICITY":0.00015587,"INCLINATION":97.2826,"RA_OF_ASC_NODE":233.5458,"ARG_OF_PERICENTER":72.4191,"MEAN_ANOMALY":86.1565,"EPHEMERIS_TYPE":0,"CLASSIFICATION_TYPE":"U","NORAD_CAT_ID":68387,"ELEMENT_SET_NO":999,"REV_AT_EPOCH":232,"BSTAR":-0.0037321119,"MEAN_MOTION_DOT":-0.01764094,"MEAN_MOTION_DDOT":0.00092812877},{"OBJECT_NAME":"STARLINK-37203","OBJECT_ID":"2026-063J","EPOCH":"2026-04-02T18:00:02.000160","MEAN_MOTION":15.99071903,"ECCENTRICITY":0.00016386,"INCLINATION":97.2824,"RA_OF_ASC_NODE":233.5467,"ARG_OF_PERICENTER":69.22,"MEAN_ANOMALY":91.8635,"EPHEMERIS_TYPE":0,"CLASSIFICATION_TYPE":"U","NORAD_CAT_ID":68388,"ELEMENT_SET_NO":999,"REV_AT_EPOCH":232,"BSTAR":-0.00376806,"MEAN_MOTION_DOT":-0.01795699,"MEAN_MOTION_DDOT":0.00096120668},{"OBJECT_NAME":"STARLINK-37197","OBJECT_ID":"2026-063K","EPOCH":"2026-04-02T18:00:02.000160","MEAN_MOTION":15.99332269,"ECCENTRICITY":0.00016581,"INCLINATION":97.2824,"RA_OF_ASC_NODE":233.5491,"ARG_OF_PERICENTER":70.4169,"MEAN_ANOMALY":95.0063,"EPHEMERIS_TYPE":0,"CLASSIFICATION_TYPE":"U","NORAD_CAT_ID":68389,"ELEMENT_SET_NO":999,"REV_AT_EPOCH":232,"BSTAR":-0.0037283175,"MEAN_MOTION_DOT":-0.0180274,"MEAN_MOTION_DDOT":0.00097117687},{"OBJECT_NAME":"STARLINK-37193","OBJECT_ID":"2026-063L","EPOCH":"2026-04-03T08:17:24.055584","MEAN_MOTION":16.03541129,"ECCENTRICITY":4.18e-5,"INCLINATION":97.2818,"RA_OF_ASC_NODE":234.1992,"ARG_OF_PERICENTER":35.599,"MEAN_ANOMALY":324.5318,"EPHEMERIS_TYPE":0,"CLASSIFICATION_TYPE":"U","NORAD_CAT_ID":68390,"ELEMENT_SET_NO":999,"REV_AT_EPOCH":151,"BSTAR":0.0013916,"MEAN_MOTION_DOT":0.00860153,"MEAN_MOTION_DDOT":0.00037432},{"OBJECT_NAME":"STARLINK-37216","OBJECT_ID":"2026-063M","EPOCH":"2026-04-02T18:00:02.000160","MEAN_MOTION":15.99447323,"ECCENTRICITY":0.00015299,"INCLINATION":97.2823,"RA_OF_ASC_NODE":233.5498,"ARG_OF_PERICENTER":75.5954,"MEAN_ANOMALY":91.9601,"EPHEMERIS_TYPE":0,"CLASSIFICATION_TYPE":"U","NORAD_CAT_ID":68391,"ELEMENT_SET_NO":999,"REV_AT_EPOCH":232,"BSTAR":-0.003650729,"MEAN_MOTION_DOT":-0.01776907,"MEAN_MOTION_DDOT":0.0009464416},{"OBJECT_NAME":"STARLINK-37215","OBJECT_ID":"2026-063N","EPOCH":"2026-04-02T18:00:02.000160","MEAN_MOTION":15.9959016,"ECCENTRICITY":0.00014882,"INCLINATION":97.282,"RA_OF_ASC_NODE":233.551,"ARG_OF_PERICENTER":81.0804,"MEAN_ANOMALY":89.0356,"EPHEMERIS_TYPE":0,"CLASSIFICATION_TYPE":"U","NORAD_CAT_ID":68392,"ELEMENT_SET_NO":999,"REV_AT_EPOCH":232,"BSTAR":-0.0036570097,"MEAN_MOTION_DOT":-0.01794076,"MEAN_MOTION_DDOT":0.0009652646},{"OBJECT_NAME":"STARLINK-37184","OBJECT_ID":"2026-063P","EPOCH":"2026-04-02T18:00:02.000160","MEAN_MOTION":15.99739684,"ECCENTRICITY":0.00015975,"INCLINATION":97.2823,"RA_OF_ASC_NODE":233.5521,"ARG_OF_PERICENTER":72.4321,"MEAN_ANOMALY":100.2824,"EPHEMERIS_TYPE":0,"CLASSIFICATION_TYPE":"U","NORAD_CAT_ID":68393,"ELEMENT_SET_NO":999,"REV_AT_EPOCH":232,"BSTAR":-0.0036836888,"MEAN_MOTION_DOT":-0.0182213,"MEAN_MOTION_DDOT":0.00099556441},{"OBJECT_NAME":"STARLINK-37157","OBJECT_ID":"2026-063Q","EPOCH":"2026-04-02T18:00:02.000160","MEAN_MOTION":15.99863067,"ECCENTRICITY":0.0001617,"INCLINATION":97.282,"RA_OF_ASC_NODE":233.5526,"ARG_OF_PERICENTER":66.7918,"MEAN_ANOMALY":107.9863,"EPHEMERIS_TYPE":0,"CLASSIFICATION_TYPE":"U","NORAD_CAT_ID":68394,"ELEMENT_SET_NO":999,"REV_AT_EPOCH":232,"BSTAR":-0.003653719,"MEAN_MOTION_DOT":-0.01819945,"MEAN_MOTION_DDOT":0.00099473566},{"OBJECT_NAME":"STARLINK-37172","OBJECT_ID":"2026-063R","EPOCH":"2026-04-02T18:00:02.000160","MEAN_MOTION":16.001321,"ECCENTRICITY":0.00015881,"INCLINATION":97.2814,"RA_OF_ASC_NODE":233.5544,"ARG_OF_PERICENTER":73.71,"MEAN_ANOMALY":105.7685,"EPHEMERIS_TYPE":0,"CLASSIFICATION_TYPE":"U","NORAD_CAT_ID":68395,"ELEMENT_SET_NO":999,"REV_AT_EPOCH":232,"BSTAR":-0.0036307256,"MEAN_MOTION_DOT":-0.01835985,"MEAN_MOTION_DDOT":0.0010144756},{"OBJECT_NAME":"STARLINK-37190","OBJECT_ID":"2026-063S","EPOCH":"2026-04-02T18:00:02.000160","MEAN_MOTION":16.00006807,"ECCENTRICITY":0.00014955,"INCLINATION":97.2814,"RA_OF_ASC_NODE":233.5533,"ARG_OF_PERICENTER":73.3323,"MEAN_ANOMALY":103.5772,"EPHEMERIS_TYPE":0,"CLASSIFICATION_TYPE":"U","NORAD_CAT_ID":68396,"ELEMENT_SET_NO":999,"REV_AT_EPOCH":232,"BSTAR":-0.0036843208,"MEAN_MOTION_DOT":-0.01849746,"MEAN_MOTION_DDOT":0.0010273662},{"OBJECT_NAME":"STARLINK-37194","OBJECT_ID":"2026-063T","EPOCH":"2026-04-02T18:00:02.000160","MEAN_MOTION":16.00255178,"ECCENTRICITY":0.00016109,"INCLINATION":97.2815,"RA_OF_ASC_NODE":233.5554,"ARG_OF_PERICENTER":65.7478,"MEAN_ANOMALY":116.0867,"EPHEMERIS_TYPE":0,"CLASSIFICATION_TYPE":"U","NORAD_CAT_ID":68397,"ELEMENT_SET_NO":999,"REV_AT_EPOCH":232,"BSTAR":-0.0035725676,"MEAN_MOTION_DOT":-0.0181941,"MEAN_MOTION_DDOT":0.00099871569},{"OBJECT_NAME":"STARLINK-37220","OBJECT_ID":"2026-063U","EPOCH":"2026-04-02T18:00:02.000160","MEAN_MOTION":16.00790582,"ECCENTRICITY":0.00020912,"INCLINATION":97.2815,"RA_OF_ASC_NODE":233.5577,"ARG_OF_PERICENTER":66.0397,"MEAN_ANOMALY":120.4043,"EPHEMERIS_TYPE":0,"CLASSIFICATION_TYPE":"U","NORAD_CAT_ID":68398,"ELEMENT_SET_NO":999,"REV_AT_EPOCH":232,"BSTAR":-0.0043588938,"MEAN_MOTION_DOT":-0.0228389,"MEAN_MOTION_DDOT":0.0015546241},{"OBJECT_NAME":"STARLINK-37187","OBJECT_ID":"2026-063V","EPOCH":"2026-04-02T18:00:02.000160","MEAN_MOTION":16.00392506,"ECCENTRICITY":0.00016257,"INCLINATION":97.2813,"RA_OF_ASC_NODE":233.5566,"ARG_OF_PERICENTER":66.9644,"MEAN_ANOMALY":117.1108,"EPHEMERIS_TYPE":0,"CLASSIFICATION_TYPE":"U","NORAD_CAT_ID":68399,"ELEMENT_SET_NO":999,"REV_AT_EPOCH":232,"BSTAR":-0.0035747265,"MEAN_MOTION_DOT":-0.01834573,"MEAN_MOTION_DDOT":0.0010160877},{"OBJECT_NAME":"STARLINK-36235","OBJECT_ID":"2026-063W","EPOCH":"2026-04-02T18:00:02.000160","MEAN_MOTION":16.00671292,"ECCENTRICITY":0.00015361,"INCLINATION":97.281,"RA_OF_ASC_NODE":233.5586,"ARG_OF_PERICENTER":80.5141,"MEAN_ANOMALY":108.5827,"EPHEMERIS_TYPE":0,"CLASSIFICATION_TYPE":"U","NORAD_CAT_ID":68400,"ELEMENT_SET_NO":999,"REV_AT_EPOCH":232,"BSTAR":-0.0035610636,"MEAN_MOTION_DOT":-0.01856481,"MEAN_MOTION_DDOT":0.001042517}]
